start=new Date('2021-10-07T00:00:00.000Z').valueOf();
sats=[{"CLASSIFICATION_TYPE":"U","BSTAR":"0.00005615900000","EPOCH":"2021-10-06T16:26:50.589600","RA_OF_ASC_NODE":"11.6430","SEMIMAJOR_AXIS":"6925.362","INCLINATION":"53.0566","ELEMENT_SET_NO":"999","GP_ID":"186424866","CENTER_NAME":"EARTH","APOAPSIS":"548.082","COUNTRY_CODE":"US","EPHEMERIS_TYPE":"0","OBJECT_NAME":"STARLINK-1898","MEAN_MOTION_DDOT":"0.0000000000000","RCS_SIZE":"LARGE","TLE_LINE1":"1 46745U 20074G   21279.68530775  .00000555  00000-0  56159-4 0  9996","LAUNCH_DATE":"2020-10-24","ARG_OF_PERICENTER":"104.2896","MEAN_MOTION_DOT":"0.00000555","OBJECT_ID":"2020-074G","NORAD_CAT_ID":"46745","REF_FRAME":"TEME","MEAN_ELEMENT_THEORY":"SGP4","MEAN_ANOMALY":"255.8230","REV_AT_EPOCH":"5325","FILE":"3148521","OBJECT_TYPE":"PAYLOAD","SITE":"AFETR","PERIOD":"95.592","MEAN_MOTION":"15.06395638","TLE_LINE2":"2 46745  53.0566  11.6430 0001235 104.2896 255.8230 15.06395638 53255","PERIAPSIS":"546.372","DECAY_DATE":null,"TIME_SYSTEM":"UTC","ECCENTRICITY":"0.00012350"},{"BSTAR":"0.00002236800000","CLASSIFICATION_TYPE":"U","EPOCH":"2021-10-06T13:05:08.905344","RA_OF_ASC_NODE":"12.2755","SEMIMAJOR_AXIS":"6925.376","INCLINATION":"53.0564","ELEMENT_SET_NO":"999","APOAPSIS":"548.152","CENTER_NAME":"EARTH","GP_ID":"186425118","COUNTRY_CODE":"US","MEAN_MOTION_DDOT":"0.0000000000000","EPHEMERIS_TYPE":"0","OBJECT_NAME":"STARLINK-1905","RCS_SIZE":"LARGE","LAUNCH_DATE":"2020-10-24","TLE_LINE1":"1 46746U 20074H   21279.54524196  .00000052  00000-0  22368-4 0  9999","ARG_OF_PERICENTER":"93.5229","MEAN_MOTION_DOT":"0.00000052","REF_FRAME":"TEME","NORAD_CAT_ID":"46746","OBJECT_ID":"2020-074H","REV_AT_EPOCH":"5323","MEAN_ANOMALY":"266.5910","MEAN_ELEMENT_THEORY":"SGP4","FILE":"3148521","PERIOD":"95.593","OBJECT_TYPE":"PAYLOAD","SITE":"AFETR","TLE_LINE2":"2 46746  53.0564  12.2755 0001316  93.5229 266.5910 15.06391011 53234","MEAN_MOTION":"15.06391011","PERIAPSIS":"546.330","DECAY_DATE":null,"ECCENTRICITY":"0.00013160","TIME_SYSTEM":"UTC"},{"PERIAPSIS":"546.356","PERIOD":"95.592","OBJECT_TYPE":"PAYLOAD","SITE":"AFETR","MEAN_MOTION":"15.06403021","TLE_LINE2":"2 46747  53.0553  11.7649 0001225  99.4548 260.6580 15.06403021 53252","TIME_SYSTEM":"UTC","ECCENTRICITY":"0.00012250","DECAY_DATE":null,"RCS_SIZE":"LARGE","LAUNCH_DATE":"2020-10-24","TLE_LINE1":"1 46747U 20074J   21279.65949954  .00002046  00000-0  15616-3 0  9997","REV_AT_EPOCH":"5325","MEAN_ANOMALY":"260.6580","MEAN_ELEMENT_THEORY":"SGP4","FILE":"3148521","ARG_OF_PERICENTER":"99.4548","MEAN_MOTION_DOT":"0.00002046","NORAD_CAT_ID":"46747","REF_FRAME":"TEME","OBJECT_ID":"2020-074J","APOAPSIS":"548.053","CENTER_NAME":"EARTH","GP_ID":"186425369","MEAN_MOTION_DDOT":"0.0000000000000","OBJECT_NAME":"STARLINK-1908","EPHEMERIS_TYPE":"0","COUNTRY_CODE":"US","CLASSIFICATION_TYPE":"U","BSTAR":"0.00015616000000","ELEMENT_SET_NO":"999","RA_OF_ASC_NODE":"11.7649","EPOCH":"2021-10-06T15:49:40.760256","INCLINATION":"53.0553","SEMIMAJOR_AXIS":"6925.339"},{"RCS_SIZE":"LARGE","LAUNCH_DATE":"2020-10-24","TLE_LINE1":"1 46748U 20074K   21279.66687525  .00000127  00000-0  27376-4 0  9997","REV_AT_EPOCH":"5325","MEAN_ANOMALY":"332.4370","MEAN_ELEMENT_THEORY":"SGP4","FILE":"3148521","MEAN_MOTION_DOT":"0.00000127","ARG_OF_PERICENTER":"27.6639","NORAD_CAT_ID":"46748","REF_FRAME":"TEME","OBJECT_ID":"2020-074K","PERIAPSIS":"546.962","PERIOD":"95.592","OBJECT_TYPE":"PAYLOAD","SITE":"AFETR","TLE_LINE2":"2 46748  53.0558  11.7403 0000365  27.6639 332.4370 15.06399544 53253","MEAN_MOTION":"15.06399544","TIME_SYSTEM":"UTC","ECCENTRICITY":"0.00003650","DECAY_DATE":null,"BSTAR":"0.00002737600000","CLASSIFICATION_TYPE":"U","ELEMENT_SET_NO":"999","RA_OF_ASC_NODE":"11.7403","EPOCH":"2021-10-06T16:00:18.021600","SEMIMAJOR_AXIS":"6925.350","INCLINATION":"53.0558","APOAPSIS":"547.468","GP_ID":"186424117","CENTER_NAME":"EARTH","MEAN_MOTION_DDOT":"0.0000000000000","OBJECT_NAME":"STARLINK-1910","EPHEMERIS_TYPE":"0","COUNTRY_CODE":"US"},{"CLASSIFICATION_TYPE":"U","BSTAR":"0.00016456000000","ELEMENT_SET_NO":"999","SEMIMAJOR_AXIS":"6925.347","INCLINATION":"53.0565","RA_OF_ASC_NODE":"11.7024","EPOCH":"2021-10-06T16:10:54.916608","APOAPSIS":"547.925","GP_ID":"186424367","CENTER_NAME":"EARTH","MEAN_MOTION_DDOT":"0.0000000000000","OBJECT_NAME":"STARLINK-1911","EPHEMERIS_TYPE":"0","COUNTRY_CODE":"US","LAUNCH_DATE":"2020-10-24","TLE_LINE1":"1 46749U 20074L   21279.67424672  .00002171  00000-0  16456-3 0  9998","RCS_SIZE":"LARGE","FILE":"3148521","REV_AT_EPOCH":"5325","MEAN_ANOMALY":"263.5814","MEAN_ELEMENT_THEORY":"SGP4","NORAD_CAT_ID":"46749","REF_FRAME":"TEME","OBJECT_ID":"2020-074L","MEAN_MOTION_DOT":"0.00002171","ARG_OF_PERICENTER":"96.5293","PERIAPSIS":"546.500","MEAN_MOTION":"15.06400433","TLE_LINE2":"2 46749  53.0565  11.7024 0001029  96.5293 263.5814 15.06400433 53257","PERIOD":"95.592","OBJECT_TYPE":"PAYLOAD","SITE":"AFETR","ECCENTRICITY":"0.00010290","TIME_SYSTEM":"UTC","DECAY_DATE":null},{"MEAN_MOTION":"15.06392950","TLE_LINE2":"2 46751  53.0556  11.7275 0001175  92.2402 267.8722 15.06392950 53254","PERIOD":"95.593","OBJECT_TYPE":"PAYLOAD","SITE":"AFETR","PERIAPSIS":"546.421","DECAY_DATE":null,"ECCENTRICITY":"0.00011750","TIME_SYSTEM":"UTC","LAUNCH_DATE":"2020-10-24","TLE_LINE1":"1 46751U 20074N   21279.67056255 -.00000314  00000-0 -21971-5 0  9998","RCS_SIZE":"LARGE","NORAD_CAT_ID":"46751","REF_FRAME":"TEME","OBJECT_ID":"2020-074N","ARG_OF_PERICENTER":"92.2402","MEAN_MOTION_DOT":"-0.00000314","FILE":"3148521","REV_AT_EPOCH":"5325","MEAN_ANOMALY":"267.8722","MEAN_ELEMENT_THEORY":"SGP4","APOAPSIS":"548.049","GP_ID":"186425618","CENTER_NAME":"EARTH","COUNTRY_CODE":"US","MEAN_MOTION_DDOT":"0.0000000000000","OBJECT_NAME":"STARLINK-1920","EPHEMERIS_TYPE":"0","CLASSIFICATION_TYPE":"U","BSTAR":"-0.00000219710000","SEMIMAJOR_AXIS":"6925.370","INCLINATION":"53.0556","RA_OF_ASC_NODE":"11.7275","EPOCH":"2021-10-06T16:05:36.604320","ELEMENT_SET_NO":"999"},{"RA_OF_ASC_NODE":"11.6847","EPOCH":"2021-10-06T16:21:32.159808","SEMIMAJOR_AXIS":"6925.377","INCLINATION":"53.0557","ELEMENT_SET_NO":"999","CLASSIFICATION_TYPE":"U","BSTAR":"0.00012936000000","COUNTRY_CODE":"US","OBJECT_NAME":"STARLINK-1921","EPHEMERIS_TYPE":"0","MEAN_MOTION_DDOT":"0.0000000000000","CENTER_NAME":"EARTH","GP_ID":"186425869","APOAPSIS":"547.553","ARG_OF_PERICENTER":"167.6792","MEAN_MOTION_DOT":"0.00001646","OBJECT_ID":"2020-074P","NORAD_CAT_ID":"46752","REF_FRAME":"TEME","MEAN_ANOMALY":"192.4208","MEAN_ELEMENT_THEORY":"SGP4","REV_AT_EPOCH":"5325","FILE":"3148521","RCS_SIZE":"LARGE","TLE_LINE1":"1 46752U 20074P   21279.68162222  .00001646  00000-0  12936-3 0  9998","LAUNCH_DATE":"2020-10-24","DECAY_DATE":null,"TIME_SYSTEM":"UTC","ECCENTRICITY":"0.00004480","OBJECT_TYPE":"PAYLOAD","SITE":"AFETR","PERIOD":"95.593","TLE_LINE2":"2 46752  53.0557  11.6847 0000448 167.6792 192.4208 15.06390636 53252","MEAN_MOTION":"15.06390636","PERIAPSIS":"546.932"},{"APOAPSIS":"547.978","GP_ID":"186424617","CENTER_NAME":"EARTH","MEAN_MOTION_DDOT":"0.0000000000000","OBJECT_NAME":"STARLINK-1922","EPHEMERIS_TYPE":"0","COUNTRY_CODE":"US","BSTAR":"0.00014093000000","CLASSIFICATION_TYPE":"U","ELEMENT_SET_NO":"999","RA_OF_ASC_NODE":"11.8166","EPOCH":"2021-10-06T15:33:46.082592","SEMIMAJOR_AXIS":"6925.376","INCLINATION":"53.0558","PERIAPSIS":"546.503","PERIOD":"95.593","OBJECT_TYPE":"PAYLOAD","SITE":"AFETR","TLE_LINE2":"2 46753  53.0558  11.8166 0001065 108.8094 251.3011 15.06391121 53255","MEAN_MOTION":"15.06391121","ECCENTRICITY":"0.00010650","TIME_SYSTEM":"UTC","DECAY_DATE":null,"RCS_SIZE":"LARGE","LAUNCH_DATE":"2020-10-24","TLE_LINE1":"1 46753U 20074Q   21279.64845003  .00001818  00000-0  14093-3 0  9997","REV_AT_EPOCH":"5325","MEAN_ELEMENT_THEORY":"SGP4","MEAN_ANOMALY":"251.3011","FILE":"3148521","MEAN_MOTION_DOT":"0.00001818","ARG_OF_PERICENTER":"108.8094","REF_FRAME":"TEME","NORAD_CAT_ID":"46753","OBJECT_ID":"2020-074Q"},{"CLASSIFICATION_TYPE":"U","BSTAR":"0.00018075000000","ELEMENT_SET_NO":"999","RA_OF_ASC_NODE":"11.7908","EPOCH":"2021-10-06T15:44:22.374528","SEMIMAJOR_AXIS":"6925.338","INCLINATION":"53.0552","APOAPSIS":"548.071","GP_ID":"186424867","CENTER_NAME":"EARTH","MEAN_MOTION_DDOT":"0.0000000000000","OBJECT_NAME":"STARLINK-1923","EPHEMERIS_TYPE":"0","COUNTRY_CODE":"US","RCS_SIZE":"LARGE","LAUNCH_DATE":"2020-10-24","TLE_LINE1":"1 46754U 20074R   21279.65581452  .00002412  00000-0  18075-3 0  9999","REV_AT_EPOCH":"5325","MEAN_ANOMALY":"265.3988","MEAN_ELEMENT_THEORY":"SGP4","FILE":"3148521","MEAN_MOTION_DOT":"0.00002412","ARG_OF_PERICENTER":"94.7144","REF_FRAME":"TEME","NORAD_CAT_ID":"46754","OBJECT_ID":"2020-074R","PERIAPSIS":"546.336","PERIOD":"95.592","OBJECT_TYPE":"PAYLOAD","SITE":"AFETR","TLE_LINE2":"2 46754  53.0552  11.7908 0001253  94.7144 265.3988 15.06403334 53259","MEAN_MOTION":"15.06403334","TIME_SYSTEM":"UTC","ECCENTRICITY":"0.00012530","DECAY_DATE":null},{"RCS_SIZE":"LARGE","LAUNCH_DATE":"2020-10-24","TLE_LINE1":"1 46755U 20074S   21279.66088620  .00002016  00000-0  15419-3 0  9999","REV_AT_EPOCH":"5318","MEAN_ELEMENT_THEORY":"SGP4","MEAN_ANOMALY":"256.0252","FILE":"3148521","MEAN_MOTION_DOT":"0.00002016","ARG_OF_PERICENTER":"104.0885","NORAD_CAT_ID":"46755","REF_FRAME":"TEME","OBJECT_ID":"2020-074S","PERIAPSIS":"546.301","PERIOD":"95.592","OBJECT_TYPE":"PAYLOAD","SITE":"AFETR","TLE_LINE2":"2 46755  53.0572  16.7729 0001331 104.0885 256.0252 15.06397005 53182","MEAN_MOTION":"15.06397005","TIME_SYSTEM":"UTC","ECCENTRICITY":"0.00013310","DECAY_DATE":null,"CLASSIFICATION_TYPE":"U","BSTAR":"0.00015419000000","ELEMENT_SET_NO":"999","EPOCH":"2021-10-06T15:51:40.567680","RA_OF_ASC_NODE":"16.7729","SEMIMAJOR_AXIS":"6925.358","INCLINATION":"53.0572","APOAPSIS":"548.145","GP_ID":"186425119","CENTER_NAME":"EARTH","MEAN_MOTION_DDOT":"0.0000000000000","OBJECT_NAME":"STARLINK-1924","EPHEMERIS_TYPE":"0","COUNTRY_CODE":"US"}];
